{
  "type": "FeatureCollection",
  "features": [
    {
      "type": "Feature",
      "properties": {
        "norad_id": 65731,
        "name": "1998-067XK",
        "group": "stations",
        "lat": -46.96991084597797,
        "lon": 29.660815952213778,
        "alt_km": 367.28820217622615,
        "timestamp": "2025-12-22T11:33:19.188496+00:00",
        "meta_object_name": "1998-067XK",
        "meta_object_id": "1998-067XK",
        "meta_epoch": "2025-12-21T23:36:26.095968",
        "meta_mean_motion": 15.67429513,
        "meta_eccentricity": 0.0004835,
        "meta_inclination": 51.6293,
        "meta_ra_of_asc_node": 90.2734,
        "meta_arg_of_pericenter": 305.1289,
        "meta_mean_anomaly": 54.9254,
        "meta_ephemeris_type": 0,
        "meta_classification_type": "U",
        "meta_norad_cat_id": 65731,
        "meta_element_set_no": 999,
        "meta_rev_at_epoch": 1459,
        "meta_bstar": 0.00097602,
        "meta_mean_motion_dot": 0.00108748,
        "meta_mean_motion_ddot": 0,
        "tle_line1": "1 65731U 98067XK  25355.98363537  .00108748  00000+0  97602-3 0  9990",
        "tle_line2": "2 65731  51.6293  90.2734 0004835 305.1289  54.9254 15.67429513 14594"
      },
      "geometry": {
        "type": "Point",
        "coordinates": [
          29.660815952213778,
          -46.96991084597797
        ]
      }
    },
    {
      "type": "Feature",
      "properties": {
        "norad_id": 65732,
        "name": "RSP-03",
        "group": "stations",
        "lat": 11.982835686234882,
        "lon": 96.48021343690529,
        "alt_km": 353.5406879086895,
        "timestamp": "2025-12-22T11:33:19.188507+00:00",
        "meta_object_name": "RSP-03",
        "meta_object_id": "1998-067XL",
        "meta_epoch": "2025-12-21T12:35:17.944800",
        "meta_mean_motion": 15.70746693,
        "meta_eccentricity": 0.00057254,
        "meta_inclination": 51.6266,
        "meta_ra_of_asc_node": 91.6927,
        "meta_arg_of_pericenter": 306.8902,
        "meta_mean_anomaly": 53.1571,
        "meta_ephemeris_type": 0,
        "meta_classification_type": "U",
        "meta_norad_cat_id": 65732,
        "meta_element_set_no": 999,
        "meta_rev_at_epoch": 1454,
        "meta_bstar": 0.00095100217,
        "meta_mean_motion_dot": 0.00121759,
        "meta_mean_motion_ddot": 0,
        "tle_line1": "1 65732U 98067XL  25355.52451325  .00121759  00000+0  95100-3 0  9992",
        "tle_line2": "2 65732  51.6266  91.6927 0005725 306.8902  53.1571 15.70746693 14546"
      },
      "geometry": {
        "type": "Point",
        "coordinates": [
          96.48021343690529,
          11.982835686234882
        ]
      }
    },
    {
      "type": "Feature",
      "properties": {
        "norad_id": 65733,
        "name": "GHS-01",
        "group": "stations",
        "lat": -1.7177402257008432,
        "lon": -93.69377201139899,
        "alt_km": 339.61924046445984,
        "timestamp": "2025-12-22T11:33:19.188520+00:00",
        "meta_object_name": "GHS-01",
        "meta_object_id": "1998-067XM",
        "meta_epoch": "2025-12-21T11:59:59.059104",
        "meta_mean_motion": 15.78528465,
        "meta_eccentricity": 0.0008816,
        "meta_inclination": 51.6282,
        "meta_ra_of_asc_node": 90.0237,
        "meta_arg_of_pericenter": 335.2591,
        "meta_mean_anomaly": 24.7986,
        "meta_ephemeris_type": 0,
        "meta_classification_type": "U",
        "meta_norad_cat_id": 65733,
        "meta_element_set_no": 999,
        "meta_rev_at_epoch": 1456,
        "meta_bstar": 0.0013106,
        "meta_mean_motion_dot": 0.00239293,
        "meta_mean_motion_ddot": 0,
        "tle_line1": "1 65733U 98067XM  25355.49998911  .00239293  00000+0  13106-2 0  9994",
        "tle_line2": "2 65733  51.6282  90.0237 0008816 335.2591  24.7986 15.78528465 14565"
      },
      "geometry": {
        "type": "Point",
        "coordinates": [
          -93.69377201139899,
          -1.7177402257008432
        ]
      }
    },
    {
      "type": "Feature",
      "properties": {
        "norad_id": 65941,
        "name": "YOTSUBA-KULOVER",
        "group": "stations",
        "lat": -1.4727727872763203,
        "lon": -87.86660015224054,
        "alt_km": 387.843787054705,
        "timestamp": "2025-12-22T11:33:19.188530+00:00",
        "meta_object_name": "YOTSUBA-KULOVER",
        "meta_object_id": "1998-067XN",
        "meta_epoch": "2025-12-21T13:15:51.125184",
        "meta_mean_motion": 15.60566136,
        "meta_eccentricity": 0.0002004,
        "meta_inclination": 51.6297,
        "meta_ra_of_asc_node": 95.6446,
        "meta_arg_of_pericenter": 334.8286,
        "meta_mean_anomaly": 25.2609,
        "meta_ephemeris_type": 0,
        "meta_classification_type": "U",
        "meta_norad_cat_id": 65941,
        "meta_element_set_no": 999,
        "meta_rev_at_epoch": 1123,
        "meta_bstar": 0.00075706467,
        "meta_mean_motion_dot": 0.00063759,
        "meta_mean_motion_ddot": 0,
        "tle_line1": "1 65941U 98067XN  25355.55267506  .00063759  00000+0  75706-3 0  9998",
        "tle_line2": "2 65941  51.6297  95.6446 0002004 334.8286  25.2609 15.60566136 11231"
      },
      "geometry": {
        "type": "Point",
        "coordinates": [
          -87.86660015224054,
          -1.4727727872763203
        ]
      }
    },
    {
      "type": "Feature",
      "properties": {
        "norad_id": 65942,
        "name": "BOTAN",
        "group": "stations",
        "lat": -49.729307356064254,
        "lon": 20.730836313583218,
        "alt_km": 376.60637541653614,
        "timestamp": "2025-12-22T11:33:19.188540+00:00",
        "meta_object_name": "BOTAN",
        "meta_object_id": "1998-067XP",
        "meta_epoch": "2025-12-21T12:53:25.393344",
        "meta_mean_motion": 15.64619472,
        "meta_eccentricity": 0.00030368,
        "meta_inclination": 51.6287,
        "meta_ra_of_asc_node": 94.7896,
        "meta_arg_of_pericenter": 312.4061,
        "meta_mean_anomaly": 47.6677,
        "meta_ephemeris_type": 0,
        "meta_classification_type": "U",
        "meta_norad_cat_id": 65942,
        "meta_element_set_no": 999,
        "meta_rev_at_epoch": 1124,
        "meta_bstar": 0.0010329354,
        "meta_mean_motion_dot": 0.00102689,
        "meta_mean_motion_ddot": 0,
        "tle_line1": "1 65942U 98067XP  25355.53709946  .00102689  00000+0  10329-2 0  9991",
        "tle_line2": "2 65942  51.6287  94.7896 0003036 312.4061  47.6677 15.64619472 11249"
      },
      "geometry": {
        "type": "Point",
        "coordinates": [
          20.730836313583218,
          -49.729307356064254
        ]
      }
    },
    {
      "type": "Feature",
      "properties": {
        "norad_id": 65943,
        "name": "E-KAGAKU-1",
        "group": "stations",
        "lat": -0.985730628326584,
        "lon": -88.24574632904013,
        "alt_km": 386.74238883273756,
        "timestamp": "2025-12-22T11:33:19.188551+00:00",
        "meta_object_name": "E-KAGAKU-1",
        "meta_object_id": "1998-067XQ",
        "meta_epoch": "2025-12-21T11:43:47.711424",
        "meta_mean_motion": 15.60558335,
        "meta_eccentricity": 0.00011984,
        "meta_inclination": 51.6316,
        "meta_ra_of_asc_node": 95.9734,
        "meta_arg_of_pericenter": 280.9822,
        "meta_mean_anomaly": 79.1036,
        "meta_ephemeris_type": 0,
        "meta_classification_type": "U",
        "meta_norad_cat_id": 65943,
        "meta_element_set_no": 999,
        "meta_rev_at_epoch": 1122,
        "meta_bstar": 0.00073910068,
        "meta_mean_motion_dot": 0.00062201,
        "meta_mean_motion_ddot": 0,
        "tle_line1": "1 65943U 98067XQ  25355.48874666  .00062201  00000+0  73910-3 0  9999",
        "tle_line2": "2 65943  51.6316  95.9734 0001198 280.9822  79.1036 15.60558335 11221"
      },
      "geometry": {
        "type": "Point",
        "coordinates": [
          -88.24574632904013,
          -0.985730628326584
        ]
      }
    },
    {
      "type": "Feature",
      "properties": {
        "norad_id": 66052,
        "name": "HRC MONOBLOCK CAMERA",
        "group": "stations",
        "lat": -24.61053988698755,
        "lon": 71.63038883310044,
        "alt_km": 406.3006454207125,
        "timestamp": "2025-12-22T11:33:19.188561+00:00",
        "meta_object_name": "HRC MONOBLOCK CAMERA",
        "meta_object_id": "1998-067XR",
        "meta_epoch": "2025-12-21T17:10:53.034240",
        "meta_mean_motion": 15.54728821,
        "meta_eccentricity": 0.0002303,
        "meta_inclination": 51.6309,
        "meta_ra_of_asc_node": 96.7319,
        "meta_arg_of_pericenter": 227.1692,
        "meta_mean_anomaly": 132.9105,
        "meta_ephemeris_type": 0,
        "meta_classification_type": "U",
        "meta_norad_cat_id": 66052,
        "meta_element_set_no": 999,
        "meta_rev_at_epoch": 1023,
        "meta_bstar": 0.00048538,
        "meta_mean_motion_dot": 0.00032497,
        "meta_mean_motion_ddot": 0,
        "tle_line1": "1 66052U 98067XR  25355.71589160  .00032497  00000+0  48538-3 0  9991",
        "tle_line2": "2 66052  51.6309  96.7319 0002303 227.1692 132.9105 15.54728821 10237"
      },
      "geometry": {
        "type": "Point",
        "coordinates": [
          71.63038883310044,
          -24.61053988698755
        ]
      }
    }
  ]
}